ONEWEB-0685             
1 54679U 22166AP  25302.44549466  .00000076  00000+0  15148-3 0  9996
2 54679  87.9166 290.0250 0001603  86.0371 274.0947 13.21831265140935
ONEWEB-0712             
1 54680U 22166AQ  25302.48523729 -.00000015  00000+0 -73520-4 0  9990
2 54680  87.8997 274.7214 0001742 102.1135 258.0191 13.16595782141703
ONEWEB-0714             
1 54681U 22166AR  25302.45135729  .00000067  00000+0  12981-3 0  9995
2 54681  87.9168 290.0175 0001696  90.5864 269.5464 13.21826600141059
ONEWEB-0532             
1 55140U 23004A   25302.33926936  .00000094  00000+0  20847-3 0  9993
2 55140  87.9125  51.7614 0001603  86.1872 273.9443 13.17649584137185
ONEWEB-0533             
1 55141U 23004B   25302.53505852 -.00000221  00000+0 -64844-3 0  9995
2 55141  87.8971  36.4831 0001571 105.4396 254.6906 13.12445171137805
ONEWEB-0541             
1 55142U 23004C   25302.38456939 -.00000391  00000+0 -11402-2 0  9999
2 55142  87.8849  67.0098 0001677  94.0086 266.1234 13.11418035135696
ONEWEB-0543             
1 55143U 23004D   25302.49925999  .00000061  00000+0  12089-3 0  9994
2 55143  87.9206  21.3185 0001847 109.4624 250.6708 13.18686443139294
ONEWEB-0544             
1 55144U 23004E   25302.18915995  .00000094  00000+0  20596-3 0  9994
2 55144  87.9208  21.3699 0001995 105.1265 255.0088 13.18686062139258
